ZHUHAI-1 01 (CAS-4A)    
1 42761U 17034D   23180.05249842  .00007209  00000+0  36229-3 0  9995
2 42761  43.0160  48.2455 0011640 187.5964 172.4710 15.17648871333443
MAX VALIER SAT          
1 42778U 17036P   23180.06390662  .00022341  00000+0  56972-3 0  9994
2 42778  97.1539 214.6303 0009571  69.9821 290.2455 15.39485137334553
RADFXSAT (FOX-1B)       
1 43017U 17073E   23180.23782323  .00008139  00000+0  56408-3 0  9993
2 43017  97.6303  64.0986 0233566  29.9151 331.5179 14.86327774302979
FOX-1D (AO-92)          
1 43137U 18004AC  23180.16906582  .00032805  00000+0  64961-3 0  9998
2 43137  97.3281 259.4968 0006348 103.1158 257.0801 15.46988394304156
DIWATA-2B               
1 43678U 18084H   23180.44976464  .00001248  00000+0  12422-3 0  9995
2 43678  98.0245 324.6669 0010730 117.7588 242.4720 14.93475089254093
ES'HAIL 2               
1 43700U 18090A   23180.05952203  .00000165  00000+0  00000+0 0  9992
2 43700   0.0151 329.9024 0002005 162.9349 191.3167  1.00274340 17044
FOX-1CLIFF (AO-95)      
1 43770U 18099N   23179.70008943  .00004741  00000+0  38542-3 0  9991
2 43770  97.5690 240.9243 0014091 102.6767 257.6033 14.99965989249333
ITASAT 1                
1 43786U 18099AE  23179.70482025  .00004029  00000+0  33116-3 0  9996
2 43786  97.5731 241.9620 0014485  90.9155 269.3728 14.99621851249375
JY1SAT (JO-97)          
1 43803U 18099AX  23179.91548835  .00005390  00000+0  42559-3 0  9994
2 43803  97.5717 242.1827 0015632  57.5398 302.7335 15.01009420249455
UWE-4                   
1 43880U 18111E   23179.68026994  .00005868  00000+0  44625-3 0  9991
2 43880  97.6355  84.6790 0019651 132.0997 228.1902 15.02354433244090
NEXUS (FO-99)           
1 43937U 19003F   23179.56523962  .00056795  00000+0  86198-3 0  9995
2 43937  97.0845 206.6421 0011229 218.6619 141.3833 15.54348133247812
JAISAT-1                
1 44419U 19038F   23179.66704896  .00020891  00000+0  70051-3 0  9996
2 44419  97.6728 161.7743 0011977 255.9954 103.9955 15.30865252220290
DUCHIFAT-3              
1 44854U 19089C   23179.93942070  .00007380  00000+0  49513-3 0  9990
2 44854  36.9632  21.0425 0008123  43.2427 316.8953 15.06451329194607
CAS-6 (TIANQIN 1)       
1 44881U 19093C   23180.44536885  .00000982  00000+0  12850-3 0  9991
2 44881  97.8615 258.6880 0015619  42.7011 317.5413 14.82569293190617
RS-44 & BREEZE-KM R/B   
1 44909U 19096E   23179.40279192  .00000040  00000+0  11210-3 0  9998
2 44909  82.5221 340.4914 0217879 160.4983 200.4619 12.79721825163644
BY70-2                  
1 45857U 20042B   23180.49369141  .00017480  00000+0  17712-2 0  9997
2 45857  97.9255 260.4365 0007057 326.3472  33.7297 14.90961544161372
SALSAT                  
1 46495U 20068K   23172.83279536  .00004036  00000+0  26739-3 0  9994
2 46495  97.7704 120.8847 0017405 103.1112 257.2059 15.07774126149778
RADFXSAT-2 (AO-109)     
1 47311U 21002C   23179.74068335  .00024066  00000+0  61093-3 0  9998
2 47311  60.6817  14.1074 0009720 195.4997 164.5802 15.39600248136076
UVSQ-SAT                
1 47438U 21006AB  23179.64836616  .00014160  00000+0  57265-3 0  9996
2 47438  97.3837 236.5915 0010336  50.6062 309.6089 15.24781525134393
DIY-1 (ARDUIQUBE)       
1 47963U 21022AH  23180.19828889  .00413529  00000+0  31428-2 0  9996
2 47963  97.4902  89.6218 0009399 164.2433 195.9124 15.71042560124479
XW-3 (CAS-9)            
1 50466U 21131B   23180.47763531  .00000555  00000+0  19454-3 0  9999
2 50466  98.5520 261.9845 0005514 102.4540 257.7265 14.38941622 79121
TEVEL-3                 
1 50988U 22002E   23180.38102847  .00017453  00000+0  68831-3 0  9991
2 50988  97.4332 247.2655 0008200 181.1502 178.9718 15.25596817 80625
TEVEL-8                 
1 50989U 22002F   23180.46590378  .00018092  00000+0  71474-3 0  9998
2 50989  97.4347 247.4102 0008241 180.2493 179.8742 15.25531403 80633
TEVEL-5                 
1 50998U 22002Q   23180.38458619  .00018684  00000+0  71785-3 0  9992
2 50998  97.4327 247.6669 0009460 177.2791 182.8500 15.26443450 80655
TEVEL-6                 
1 50999U 22002R   23180.44866140  .00018439  00000+0  70845-3 0  9996
2 50999  97.4325 247.7250 0009475 176.8634 183.2666 15.26446290 80662
TEVEL-1                 
1 51013U 22002AF  23180.45679319  .00017687  00000+0  69846-3 0  9998
2 51013  97.4325 247.2820 0008133 180.8683 179.2542 15.25551495 80635
TEVEL-7                 
1 51062U 22002CG  23180.40115673  .00018184  00000+0  71799-3 0  9998
2 51062  97.4342 247.3186 0008217 180.0935 180.0303 15.25549016 80629
TEVEL-4                 
1 51063U 22002CH  23180.40765951  .00017950  00000+0  70996-3 0  9997
2 51063  97.4342 247.3080 0008216 180.2717 179.8518 15.25493596 80627
TEVEL-2                 
1 51069U 22002CP  23180.44841898  .00017721  00000+0  69866-3 0  9992
2 51069  97.4328 247.3032 0008175 180.6834 179.4394 15.25604304 80632
GREENCUBE               
1 53106U 22080B   23178.63588110 -.00000003  00000+0  00000+0 0  9992
2 53106  70.1635 316.0877 0008542 183.5982 176.4617  6.42556943 22422
RS29S (SXC3-2110 CYCLO*)
1 53373U 22096D   23180.42387681  .00029069  00000+0  73399-3 0  9992
2 53373  97.4128  86.8654 0003560 105.9061 254.2577 15.39780457 49573
RS32S (SXC3-212 MONITO*)
1 53374U 22096E   23180.46499423  .00026657  00000+0  69367-3 0  9995
2 53374  97.4105  86.7653 0004008 102.0628 258.1066 15.38872826 49579
RS34S (SXC3-218 KUZBAS*)
1 53375U 22096F   23180.43710970  .00022415  00000+0  62473-3 0  9995
2 53375  97.4134  86.3950 0003741  98.4778 261.6891 15.36782881 49546
RS23S (SXC3-21 UTMN)    
1 53376U 22096G   23180.45530960  .00022522  00000+0  61677-3 0  9991
2 53376  97.4130  86.5156 0003555 100.4312 259.7333 15.37330241 49554
RS28S (SXC3-214 MIET-A*)
1 53377U 22096H   23180.45060869  .00020529  00000+0  58165-3 0  9991
2 53377  97.4142  86.3859 0003626  97.4668 262.6988 15.36287580 49548
RS26S (KAI-1)           
1 53378U 22096J   23180.43602497  .00017033  00000+0  50707-3 0  9999
2 53378  97.4157  86.1186 0003327  94.6604 265.5019 15.34771854 49528
RS19S (SXC3-219 ISOI)   
1 53381U 22096M   23180.45676849  .00021032  00000+0  57951-3 0  9999
2 53381  97.4131  86.6618 0004187  54.4149 305.7485 15.37149923 49569
RS21S (CUBESX-HSE-2)    
1 53383U 22096P   23180.42592820  .00022607  00000+0  61319-3 0  9996
2 53383  97.4133  86.7148 0004651  52.6429 307.5239 15.37622084 49560
RS30S (SXC3-217 SIREN)  
1 53384U 22096Q   23180.47004100  .00019139  00000+0  54713-3 0  9997
2 53384  97.4146  86.5191 0004493  46.9803 313.1816 15.36018323 49554
RS20S (GEOSCAN-EDELVEIS)
1 53385U 22096R   23180.44312628  .00030600  00000+0  73455-3 0  9992
2 53385  97.4114  87.4296 0004458  44.5399 315.6205 15.41304078 49641
RS33S (SXC3-215 VIZARD) 
1 53386U 22096S   23180.45653689  .00041602  00000+0  86786-3 0  9994
2 53386  97.4116  88.1710 0004768  53.4977 306.6711 15.45425441 49686
CAS-5A (FO-118)         
1 54684U 22167C   23180.43415847  .00009513  00000+0  52203-3 0  9997
2 54684  97.5634 317.9301 0012192 293.8319  66.1634 15.14304387 30530
